{"type": "FeatureCollection", "features": [{"type": "Feature", "properties": {"norad_id": 24946, "name": "IRIDIUM 33", "group": "iridium-33-debris", "lat": -85.3662673760787, "lon": 12.997394649630676, "alt_km": 783.7821015123372, "timestamp": "2025-12-22T05:49:03.885971+00:00", "meta": {"OBJECT_NAME": "IRIDIUM 33", "OBJECT_ID": "1997-051C", "EPOCH": "2025-12-21T16:50:08.875104", "MEAN_MOTION": 14.35043089, "ECCENTRICITY": 0.0008106, "INCLINATION": 86.3862, "RA_OF_ASC_NODE": 64.4599, "ARG_OF_PERICENTER": 170.6485, "MEAN_ANOMALY": 189.4863, "EPHEMERIS_TYPE": 0, "CLASSIFICATION_TYPE": "U", "NORAD_CAT_ID": 24946, "ELEMENT_SET_NO": 999, "REV_AT_EPOCH": 47963, "BSTAR": 9.0806e-05, "MEAN_MOTION_DOT": 2.78e-06, "MEAN_MOTION_DDOT": 0}, "tle": {"line1": "1 24946U 97051C   25355.70149161  .00000278  00000+0  90806-4 0  9999", "line2": "2 24946  86.3862  64.4599 0008106 170.6485 189.4863 14.35043089479638"}}, "geometry": {"type": "Point", "coordinates": [12.997394649630676, -85.3662673760787]}}, {"type": "Feature", "properties": {"norad_id": 33773, "name": "IRIDIUM 33 DEB", "group": "iridium-33-debris", "lat": 28.93359745302096, "lon": -125.43172607675199, "alt_km": 738.4965109761715, "timestamp": "2025-12-22T05:49:03.885997+00:00", "meta": {"OBJECT_NAME": "IRIDIUM 33 DEB", "OBJECT_ID": "1997-051L", "EPOCH": "2025-12-21T14:08:46.576608", "MEAN_MOTION": 14.43274227, "ECCENTRICITY": 0.0013137, "INCLINATION": 86.4001, "RA_OF_ASC_NODE": 56.8393, "ARG_OF_PERICENTER": 120.8294, "MEAN_ANOMALY": 239.4201, "EPHEMERIS_TYPE": 0, "CLASSIFICATION_TYPE": "U", "NORAD_CAT_ID": 33773, "ELEMENT_SET_NO": 999, "REV_AT_EPOCH": 88475, "BSTAR": 0.00023086, "MEAN_MOTION_DOT": 7.98e-06, "MEAN_MOTION_DDOT": 0}, "tle": {"line1": "1 33773U 97051L   25355.58942797  .00000798  00000+0  23086-3 0  9991", "line2": "2 33773  86.4001  56.8393 0013137 120.8294 239.4201 14.43274227884758"}}, "geometry": {"type": "Point", "coordinates": [-125.43172607675199, 28.93359745302096]}}, {"type": "Feature", "properties": {"norad_id": 33775, "name": "IRIDIUM 33 DEB", "group": "iridium-33-debris", "lat": 6.49524874926865, "lon": -134.9185854502164, "alt_km": 748.4644353231106, "timestamp": "2025-12-22T05:49:03.886013+00:00", "meta": {"OBJECT_NAME": "IRIDIUM 33 DEB", "OBJECT_ID": "1997-051N", "EPOCH": "2025-12-21T14:37:50.869056", "MEAN_MOTION": 14.41485837, "ECCENTRICITY": 0.0015088, "INCLINATION": 86.3627, "RA_OF_ASC_NODE": 45.7665, "ARG_OF_PERICENTER": 128.1119, "MEAN_ANOMALY": 3.4564, "EPHEMERIS_TYPE": 0, "CLASSIFICATION_TYPE": "U", "NORAD_CAT_ID": 33775, "ELEMENT_SET_NO": 999, "REV_AT_EPOCH": 88268, "BSTAR": 0.00024418, "MEAN_MOTION_DOT": 8.13e-06, "MEAN_MOTION_DDOT": 0}, "tle": {"line1": "1 33775U 97051N   25355.60961654  .00000813  00000+0  24418-3 0  9997", "line2": "2 33775  86.3627  45.7665 0015088 128.1119   3.4564 14.41485837882686"}}, "geometry": {"type": "Point", "coordinates": [-134.9185854502164, 6.49524874926865]}}, {"type": "Feature", "properties": {"norad_id": 33776, "name": "IRIDIUM 33 DEB", "group": "iridium-33-debris", "lat": -67.23584363912721, "lon": 68.16501964990668, "alt_km": 779.047753461713, "timestamp": "2025-12-22T05:49:03.886026+00:00", "meta": {"OBJECT_NAME": "IRIDIUM 33 DEB", "OBJECT_ID": "1997-051P", "EPOCH": "2025-12-21T19:01:01.614720", "MEAN_MOTION": 14.38249967, "ECCENTRICITY": 0.001537, "INCLINATION": 86.4034, "RA_OF_ASC_NODE": 76.9743, "ARG_OF_PERICENTER": 161.4271, "MEAN_ANOMALY": 322.3629, "EPHEMERIS_TYPE": 0, "CLASSIFICATION_TYPE": "U", "NORAD_CAT_ID": 33776, "ELEMENT_SET_NO": 999, "REV_AT_EPOCH": 88212, "BSTAR": 0.00022511, "MEAN_MOTION_DOT": 7.05e-06, "MEAN_MOTION_DDOT": 0}, "tle": {"line1": "1 33776U 97051P   25355.79237980  .00000705  00000+0  22511-3 0  9998", "line2": "2 33776  86.4034  76.9743 0015370 161.4271 322.3629 14.38249967882128"}}, "geometry": {"type": "Point", "coordinates": [68.16501964990668, -67.23584363912721]}}, {"type": "Feature", "properties": {"norad_id": 33777, "name": "IRIDIUM 33 DEB", "group": "iridium-33-debris", "lat": -45.30674229381235, "lon": 27.397746330505285, "alt_km": 715.2038748937866, "timestamp": "2025-12-22T05:49:03.886038+00:00", "meta": {"OBJECT_NAME": "IRIDIUM 33 DEB", "OBJECT_ID": "1997-051Q", "EPOCH": "2025-12-21T20:07:38.898624", "MEAN_MOTION": 14.5567097, "ECCENTRICITY": 0.0005932, "INCLINATION": 86.3773, "RA_OF_ASC_NODE": 31.2449, "ARG_OF_PERICENTER": 209.5407, "MEAN_ANOMALY": 150.5467, "EPHEMERIS_TYPE": 0, "CLASSIFICATION_TYPE": "U", "NORAD_CAT_ID": 33777, "ELEMENT_SET_NO": 999, "REV_AT_EPOCH": 88666, "BSTAR": 0.00060746, "MEAN_MOTION_DOT": 2.674e-05, "MEAN_MOTION_DDOT": 0}, "tle": {"line1": "1 33777U 97051Q   25355.83864466  .00002674  00000+0  60746-3 0  9998", "line2": "2 33777  86.3773  31.2449 0005932 209.5407 150.5467 14.55670970886668"}}, "geometry": {"type": "Point", "coordinates": [27.397746330505285, -45.30674229381235]}}, {"type": "Feature", "properties": {"norad_id": 33850, "name": "IRIDIUM 33 DEB", "group": "iridium-33-debris", "lat": 2.4395416222800708, "lon": -154.06295578946919, "alt_km": 747.5096840176257, "timestamp": "2025-12-22T05:49:03.886050+00:00", "meta": {"OBJECT_NAME": "IRIDIUM 33 DEB", "OBJECT_ID": "1997-051T", "EPOCH": "2025-12-21T12:54:25.325568", "MEAN_MOTION": 14.4216572, "ECCENTRICITY": 0.00130293, "INCLINATION": 86.3408, "RA_OF_ASC_NODE": 26.3962, "ARG_OF_PERICENTER": 134.7554, "MEAN_ANOMALY": 346.6938, "EPHEMERIS_TYPE": 0, "CLASSIFICATION_TYPE": "U", "NORAD_CAT_ID": 33850, "ELEMENT_SET_NO": 999, "REV_AT_EPOCH": 88279, "BSTAR": 0.00030357281, "MEAN_MOTION_DOT": 1.019e-05, "MEAN_MOTION_DDOT": 0}, "tle": {"line1": "1 33850U 97051T   25355.53779312  .00001019  00000+0  30357-3 0  9999", "line2": "2 33850  86.3408  26.3962 0013029 134.7554 346.6938 14.42165720882797"}}, "geometry": {"type": "Point", "coordinates": [-154.06295578946919, 2.4395416222800708]}}, {"type": "Feature", "properties": {"norad_id": 33853, "name": "IRIDIUM 33 DEB", "group": "iridium-33-debris", "lat": 12.08803492426295, "lon": 164.78559741492236, "alt_km": 779.3204691686324, "timestamp": "2025-12-22T05:49:03.886063+00:00", "meta": {"OBJECT_NAME": "IRIDIUM 33 DEB", "OBJECT_ID": "1997-051W", "EPOCH": "2025-12-20T22:14:35.888928", "MEAN_MOTION": 13.9910315, "ECCENTRICITY": 0.0207332, "INCLINATION": 85.9999, "RA_OF_ASC_NODE": 346.2208, "ARG_OF_PERICENTER": 210.5493, "MEAN_ANOMALY": 176.3282, "EPHEMERIS_TYPE": 0, "CLASSIFICATION_TYPE": "U", "NORAD_CAT_ID": 33853, "ELEMENT_SET_NO": 999, "REV_AT_EPOCH": 85460, "BSTAR": 0.0010168, "MEAN_MOTION_DOT": 1.786e-05, "MEAN_MOTION_DDOT": 0}, "tle": {"line1": "1 33853U 97051W   25354.92680427  .00001786  00000+0  10168-2 0  9990", "line2": "2 33853  85.9999 346.2208 0207332 210.5493 176.3282 13.99103150854603"}}, "geometry": {"type": "Point", "coordinates": [164.78559741492236, 12.08803492426295]}}, {"type": "Feature", "properties": {"norad_id": 33860, "name": "IRIDIUM 33 DEB", "group": "iridium-33-debris", "lat": -73.85699865133795, "lon": -144.34270154792287, "alt_km": 674.8445225283322, "timestamp": "2025-12-22T05:49:03.886074+00:00", "meta": {"OBJECT_NAME": "IRIDIUM 33 DEB", "OBJECT_ID": "1997-051AD", "EPOCH": "2025-12-21T13:01:46.627392", "MEAN_MOTION": 14.67463908, "ECCENTRICITY": 0.00063803, "INCLINATION": 86.3822, "RA_OF_ASC_NODE": 23.3411, "ARG_OF_PERICENTER": 324.1868, "MEAN_ANOMALY": 197.1057, "EPHEMERIS_TYPE": 0, "CLASSIFICATION_TYPE": "U", "NORAD_CAT_ID": 33860, "ELEMENT_SET_NO": 999, "REV_AT_EPOCH": 88851, "BSTAR": 0.00083483407, "MEAN_MOTION_DOT": 4.749e-05, "MEAN_MOTION_DDOT": 0}, "tle": {"line1": "1 33860U 97051AD  25355.54290078  .00004749  00000+0  83483-3 0  9999", "line2": "2 33860  86.3822  23.3411 0006380 324.1868 197.1057 14.67463908888512"}}, "geometry": {"type": "Point", "coordinates": [-144.34270154792287, -73.85699865133795]}}, {"type": "Feature", "properties": {"norad_id": 33862, "name": "IRIDIUM 33 DEB", "group": "iridium-33-debris", "lat": 1.686332179394935, "lon": 33.44542489570611, "alt_km": 634.9745662230816, "timestamp": "2025-12-22T05:49:03.886085+00:00", "meta": {"OBJECT_NAME": "IRIDIUM 33 DEB", "OBJECT_ID": "1997-051AF", "EPOCH": "2025-12-21T13:59:31.257024", "MEAN_MOTION": 14.69601315, "ECCENTRICITY": 0.0052554, "INCLINATION": 86.4078, "RA_OF_ASC_NODE": 33.6303, "ARG_OF_PERICENTER": 39.5195, "MEAN_ANOMALY": 76.2806, "EPHEMERIS_TYPE": 0, "CLASSIFICATION_TYPE": "U", "NORAD_CAT_ID": 33862, "ELEMENT_SET_NO": 999, "REV_AT_EPOCH": 88953, "BSTAR": 0.0010364, "MEAN_MOTION_DOT": 6.314e-05, "MEAN_MOTION_DDOT": 0}, "tle": {"line1": "1 33862U 97051AF  25355.58300066  .00006314  00000+0  10364-2 0  9991", "line2": "2 33862  86.4078  33.6303 0052554  39.5195  76.2806 14.69601315889536"}}, "geometry": {"type": "Point", "coordinates": [33.44542489570611, 1.686332179394935]}}, {"type": "Feature", "properties": {"norad_id": 33866, "name": "IRIDIUM 33 DEB", "group": "iridium-33-debris", "lat": -5.450281351889257, "lon": 88.66183098507057, "alt_km": 870.7823434421452, "timestamp": "2025-12-22T05:49:03.886100+00:00", "meta": {"OBJECT_NAME": "IRIDIUM 33 DEB", "OBJECT_ID": "1997-051AK", "EPOCH": "2025-12-21T06:30:23.838336", "MEAN_MOTION": 14.25298734, "ECCENTRICITY": 0.0115015, "INCLINATION": 86.3001, "RA_OF_ASC_NODE": 89.4265, "ARG_OF_PERICENTER": 134.3497, "MEAN_ANOMALY": 280.5396, "EPHEMERIS_TYPE": 0, "CLASSIFICATION_TYPE": "U", "NORAD_CAT_ID": 33866, "ELEMENT_SET_NO": 999, "REV_AT_EPOCH": 86932, "BSTAR": 0.00042898, "MEAN_MOTION_DOT": 1.102e-05, "MEAN_MOTION_DDOT": 0}, "tle": {"line1": "1 33866U 97051AK  25355.27110924  .00001102  00000+0  42898-3 0  9991", "line2": "2 33866  86.3001  89.4265 0115015 134.3497 280.5396 14.25298734869320"}}, "geometry": {"type": "Point", "coordinates": [88.66183098507057, -5.450281351889257]}}]}